{"type": "FeatureCollection", "features": [{"type": "Feature", "properties": {"norad_id": 2807, "name": "OPS 7218 (TRANSIT 16)", "group": "nnss", "lat": -30.264652038415246, "lon": 174.2524813319582, "alt_km": 1076.2587851837798, "timestamp": "2025-12-11T08:58:27.391923+00:00", "meta": {"OBJECT_NAME": "OPS 7218 (TRANSIT 16)", "OBJECT_ID": "1967-048A", "EPOCH": "2025-12-11T01:05:34.707840", "MEAN_MOTION": 13.50721723, "ECCENTRICITY": 0.0021887, "INCLINATION": 89.6732, "RA_OF_ASC_NODE": 354.0725, "ARG_OF_PERICENTER": 118.5998, "MEAN_ANOMALY": 295.4439, "EPHEMERIS_TYPE": 0, "CLASSIFICATION_TYPE": "U", "NORAD_CAT_ID": 2807, "ELEMENT_SET_NO": 999, "REV_AT_EPOCH": 88253, "BSTAR": 0.00019465, "MEAN_MOTION_DOT": 1.36e-06, "MEAN_MOTION_DDOT": 0}, "tle": {"line1": "1 02807U 67048A   25345.04554060  .00000136  00000+0  19465-3 0  9992", "line2": "2 02807  89.6732 354.0725 0021887 118.5998 295.4439 13.50721723882530"}}, "geometry": {"type": "Point", "coordinates": [174.2524813319582, -30.264652038415246]}}, {"type": "Feature", "properties": {"norad_id": 2965, "name": "OPS 4947 (TRANSIT 17)", "group": "nnss", "lat": -81.17506361573905, "lon": -150.61841005532622, "alt_km": 1035.3608609779621, "timestamp": "2025-12-11T08:58:27.391945+00:00", "meta": {"OBJECT_NAME": "OPS 4947 (TRANSIT 17)", "OBJECT_ID": "1967-092A", "EPOCH": "2025-12-11T04:28:28.163712", "MEAN_MOTION": 13.53452884, "ECCENTRICITY": 0.0046094, "INCLINATION": 89.2497, "RA_OF_ASC_NODE": 24.5542, "ARG_OF_PERICENTER": 239.1652, "MEAN_ANOMALY": 188.8277, "EPHEMERIS_TYPE": 0, "CLASSIFICATION_TYPE": "U", "NORAD_CAT_ID": 2965, "ELEMENT_SET_NO": 999, "REV_AT_EPOCH": 87076, "BSTAR": 0.00023165, "MEAN_MOTION_DOT": 1.68e-06, "MEAN_MOTION_DDOT": 0}, "tle": {"line1": "1 02965U 67092A   25345.18643708  .00000168  00000+0  23165-3 0  9996", "line2": "2 02965  89.2497  24.5542 0046094 239.1652 188.8277 13.53452884870768"}}, "geometry": {"type": "Point", "coordinates": [-150.61841005532622, -81.17506361573905]}}, {"type": "Feature", "properties": {"norad_id": 3133, "name": "OPS 7034 (TRANSIT 18)", "group": "nnss", "lat": 58.617284930970555, "lon": -86.41071807786493, "alt_km": 1083.2701169688971, "timestamp": "2025-12-11T08:58:27.391959+00:00", "meta": {"OBJECT_NAME": "OPS 7034 (TRANSIT 18)", "OBJECT_ID": "1968-012A", "EPOCH": "2025-12-11T05:41:48.778368", "MEAN_MOTION": 13.51565062, "ECCENTRICITY": 0.0073703, "INCLINATION": 90.0278, "RA_OF_ASC_NODE": 273.6345, "ARG_OF_PERICENTER": 173.482, "MEAN_ANOMALY": 301.9153, "EPHEMERIS_TYPE": 0, "CLASSIFICATION_TYPE": "U", "NORAD_CAT_ID": 3133, "ELEMENT_SET_NO": 999, "REV_AT_EPOCH": 56898, "BSTAR": 0.00024107, "MEAN_MOTION_DOT": 1.69e-06, "MEAN_MOTION_DDOT": 0}, "tle": {"line1": "1 03133U 68012A   25345.23737012  .00000169  00000+0  24107-3 0  9993", "line2": "2 03133  90.0278 273.6345 0073703 173.4820 301.9153 13.51565062568985"}}, "geometry": {"type": "Point", "coordinates": [-86.41071807786493, 58.617284930970555]}}, {"type": "Feature", "properties": {"norad_id": 4507, "name": "NNSS 19 (TRANSIT 19)", "group": "nnss", "lat": 33.99606456548848, "lon": -125.47082526579285, "alt_km": 1077.9779791377541, "timestamp": "2025-12-11T08:58:27.391975+00:00", "meta": {"OBJECT_NAME": "NNSS 19 (TRANSIT 19)", "OBJECT_ID": "1970-067A", "EPOCH": "2025-12-11T05:15:12.507264", "MEAN_MOTION": 13.51314509, "ECCENTRICITY": 0.0170634, "INCLINATION": 90.0055, "RA_OF_ASC_NODE": 234.5328, "ARG_OF_PERICENTER": 297.8265, "MEAN_ANOMALY": 60.5684, "EPHEMERIS_TYPE": 0, "CLASSIFICATION_TYPE": "U", "NORAD_CAT_ID": 4507, "ELEMENT_SET_NO": 999, "REV_AT_EPOCH": 72201, "BSTAR": 0.00023118, "MEAN_MOTION_DOT": 1.72e-06, "MEAN_MOTION_DDOT": 0}, "tle": {"line1": "1 04507U 70067A   25345.21889476  .00000172  00000+0  23118-3 0  9997", "line2": "2 04507  90.0055 234.5328 0170634 297.8265  60.5684 13.51314509722017"}}, "geometry": {"type": "Point", "coordinates": [-125.47082526579285, 33.99606456548848]}}, {"type": "Feature", "properties": {"norad_id": 6909, "name": "NNSS 20 (TRANSIT 20)", "group": "nnss", "lat": 4.146436601747258, "lon": -104.91497919957942, "alt_km": 971.3019285304381, "timestamp": "2025-12-11T08:58:27.391987+00:00", "meta": {"OBJECT_NAME": "NNSS 20 (TRANSIT 20)", "OBJECT_ID": "1973-081A", "EPOCH": "2025-12-11T03:42:03.839040", "MEAN_MOTION": 13.71432978, "ECCENTRICITY": 0.0156612, "INCLINATION": 89.8563, "RA_OF_ASC_NODE": 255.0779, "ARG_OF_PERICENTER": 83.0117, "MEAN_ANOMALY": 278.883, "EPHEMERIS_TYPE": 0, "CLASSIFICATION_TYPE": "U", "NORAD_CAT_ID": 6909, "ELEMENT_SET_NO": 999, "REV_AT_EPOCH": 80339, "BSTAR": 0.00031898, "MEAN_MOTION_DOT": 3.25e-06, "MEAN_MOTION_DDOT": 0}, "tle": {"line1": "1 06909U 73081A   25345.15421110  .00000325  00000+0  31898-3 0  9998", "line2": "2 06909  89.8563 255.0779 0156612  83.0117 278.8830 13.71432978803395"}}, "geometry": {"type": "Point", "coordinates": [-104.91497919957942, 4.146436601747258]}}, {"type": "Feature", "properties": {"norad_id": 10457, "name": "TRANSAT", "group": "nnss", "lat": 48.529587315862564, "lon": 79.04382102249026, "alt_km": 1087.2205741719163, "timestamp": "2025-12-11T08:58:27.391998+00:00", "meta": {"OBJECT_NAME": "TRANSAT", "OBJECT_ID": "1977-106A", "EPOCH": "2025-12-11T05:27:25.562016", "MEAN_MOTION": 13.48943314, "ECCENTRICITY": 0.0025252, "INCLINATION": 89.6481, "RA_OF_ASC_NODE": 78.6506, "ARG_OF_PERICENTER": 193.8895, "MEAN_ANOMALY": 223.6308, "EPHEMERIS_TYPE": 0, "CLASSIFICATION_TYPE": "U", "NORAD_CAT_ID": 10457, "ELEMENT_SET_NO": 999, "REV_AT_EPOCH": 36723, "BSTAR": 0.00019008, "MEAN_MOTION_DOT": 1.29e-06, "MEAN_MOTION_DDOT": 0}, "tle": {"line1": "1 10457U 77106A   25345.22737919  .00000129  00000+0  19008-3 0  9999", "line2": "2 10457  89.6481  78.6506 0025252 193.8895 223.6308 13.48943314367231"}}, "geometry": {"type": "Point", "coordinates": [79.04382102249026, 48.529587315862564]}}, {"type": "Feature", "properties": {"norad_id": 12458, "name": "NOVA 1", "group": "nnss", "lat": 76.20261531983687, "lon": 92.0058099833724, "alt_km": 1154.8480855704047, "timestamp": "2025-12-11T08:58:27.392010+00:00", "meta": {"OBJECT_NAME": "NOVA 1", "OBJECT_ID": "1981-044A", "EPOCH": "2025-12-11T05:16:29.304768", "MEAN_MOTION": 13.23278327, "ECCENTRICITY": 0.0015884, "INCLINATION": 89.8524, "RA_OF_ASC_NODE": 91.4066, "ARG_OF_PERICENTER": 107.7318, "MEAN_ANOMALY": 314.7012, "EPHEMERIS_TYPE": 0, "CLASSIFICATION_TYPE": "U", "NORAD_CAT_ID": 12458, "ELEMENT_SET_NO": 999, "REV_AT_EPOCH": 15166, "BSTAR": 0.00016743, "MEAN_MOTION_DOT": 8e-07, "MEAN_MOTION_DDOT": 0}, "tle": {"line1": "1 12458U 81044A   25345.21978362  .00000080  00000+0  16743-3 0  9995", "line2": "2 12458  89.8524  91.4066 0015884 107.7318 314.7012 13.23278327151662"}}, "geometry": {"type": "Point", "coordinates": [92.0058099833724, 76.20261531983687]}}, {"type": "Feature", "properties": {"norad_id": 15362, "name": "NOVA 3", "group": "nnss", "lat": -50.07810570332831, "lon": 80.66504779736744, "alt_km": 1159.2402582296972, "timestamp": "2025-12-11T08:58:27.392020+00:00", "meta": {"OBJECT_NAME": "NOVA 3", "OBJECT_ID": "1984-110A", "EPOCH": "2025-12-11T05:44:15.214272", "MEAN_MOTION": 13.23044356, "ECCENTRICITY": 0.0030598, "INCLINATION": 90.1224, "RA_OF_ASC_NODE": 80.5171, "ARG_OF_PERICENTER": 336.1988, "MEAN_ANOMALY": 51.9779, "EPHEMERIS_TYPE": 0, "CLASSIFICATION_TYPE": "U", "NORAD_CAT_ID": 15362, "ELEMENT_SET_NO": 999, "REV_AT_EPOCH": 98679, "BSTAR": 0.00023753, "MEAN_MOTION_DOT": 1.08e-06, "MEAN_MOTION_DDOT": 0}, "tle": {"line1": "1 15362U 84110A   25345.23906498  .00000108  00000+0  23753-3 0  9992", "line2": "2 15362  90.1224  80.5171 0030598 336.1988  51.9779 13.23044356986790"}}, "geometry": {"type": "Point", "coordinates": [80.66504779736744, -50.07810570332831]}}, {"type": "Feature", "properties": {"norad_id": 15935, "name": "OSCAR 30", "group": "nnss", "lat": -34.81800858888048, "lon": 99.93945803350674, "alt_km": 1196.8054632852245, "timestamp": "2025-12-11T08:58:27.392031+00:00", "meta": {"OBJECT_NAME": "OSCAR 30", "OBJECT_ID": "1985-066A", "EPOCH": "2025-12-11T05:51:44.813088", "MEAN_MOTION": 13.3607809, "ECCENTRICITY": 0.016942, "INCLINATION": 90.1649, "RA_OF_ASC_NODE": 99.8226, "ARG_OF_PERICENTER": 88.0784, "MEAN_ANOMALY": 335.5713, "EPHEMERIS_TYPE": 0, "CLASSIFICATION_TYPE": "U", "NORAD_CAT_ID": 15935, "ELEMENT_SET_NO": 999, "REV_AT_EPOCH": 96433, "BSTAR": 0.00025022, "MEAN_MOTION_DOT": 1.49e-06, "MEAN_MOTION_DDOT": 0}, "tle": {"line1": "1 15935U 85066A   25345.24426867  .00000149  00000+0  25022-3 0  9993", "line2": "2 15935  90.1649  99.8226 0169420  88.0784 335.5713 13.36078090964336"}}, "geometry": {"type": "Point", "coordinates": [99.93945803350674, -34.81800858888048]}}, {"type": "Feature", "properties": {"norad_id": 15936, "name": "OSCAR 24", "group": "nnss", "lat": 41.3470496922405, "lon": 92.12369926066894, "alt_km": 1042.3076354112309, "timestamp": "2025-12-11T08:58:27.392041+00:00", "meta": {"OBJECT_NAME": "OSCAR 24", "OBJECT_ID": "1985-066B", "EPOCH": "2025-12-11T05:15:58.567104", "MEAN_MOTION": 13.35935481, "ECCENTRICITY": 0.0170499, "INCLINATION": 90.1789, "RA_OF_ASC_NODE": 92.2785, "ARG_OF_PERICENTER": 94.5846, "MEAN_ANOMALY": 285.7733, "EPHEMERIS_TYPE": 0, "CLASSIFICATION_TYPE": "U", "NORAD_CAT_ID": 15936, "ELEMENT_SET_NO": 999, "REV_AT_EPOCH": 96623, "BSTAR": 0.00019752, "MEAN_MOTION_DOT": 1.2e-06, "MEAN_MOTION_DDOT": 0}, "tle": {"line1": "1 15936U 85066B   25345.21942786  .00000120  00000+0  19752-3 0  9996", "line2": "2 15936  90.1789  92.2785 0170499  94.5846 285.7733 13.35935481966232"}}, "geometry": {"type": "Point", "coordinates": [92.12369926066894, 41.3470496922405]}}]}